OBJECT_NAME,OBJECT_ID,EPOCH,MEAN_MOTION,ECCENTRICITY,INCLINATION,RA_OF_ASC_NODE,ARG_OF_PERICENTER,MEAN_ANOMALY,EPHEMERIS_TYPE,CLASSIFICATION_TYPE,NORAD_CAT_ID,ELEMENT_SET_NO,REV_AT_EPOCH,BSTAR,MEAN_MOTION_DOT,MEAN_MOTION_DDOT
INTELSAT 23 (IS-23),2012-057A,2026-07-08T03:35:42.104832,1.00270471,.0000342,0.0121,27.1998,180.3322,79.5066,0,U,38867,999,5016,0,-.27E-5,0
FM-6,2013-058A,2026-07-08T02:52:49.217376,1.00270922,.0002952,0.0444,68.3523,116.1872,28.4121,0,U,39360,999,4628,0,0,0
INTELSAT 30 (IS-30),2014-062A,2026-07-08T00:48:11.790720,1.00270031,.000131,0.0173,47.8504,342.3909,172.7537,0,U,40271,999,700,0,-.136E-5,0
DIRECTV 14,2014-078B,2026-07-07T21:49:46.396128,1.00272351,.0000289,0.0108,36.7296,299.4548,177.8898,0,U,40333,999,4225,0,-.11E-5,0
DIRECTV 15,2015-026A,2026-07-07T21:48:46.493280,1.00272144,.0000398,0.0158,68.2504,269.1364,172.8114,0,U,40663,999,4067,0,-.87E-6,0
SKY MEXICO-1,2015-026B,2026-07-08T04:11:16.219392,1.00270407,.0002453,0.0128,313.6109,175.1743,141.3678,0,U,40664,999,4066,0,-.219E-5,0
INTELSAT 34 (IS-34),2015-039A,2026-07-08T03:43:34.578048,1.00270368,.0000296,0.0102,339.4642,26.1461,280.9077,0,U,40874,999,3984,0,-.27E-5,0
INTELSAT 31 (IS-31),2016-035A,2026-07-08T04:22:25.228416,1.00270297,.0001013,0.0347,238.5086,48.3346,329.8548,0,U,41581,999,3689,0,-.136E-5,0
INTELSAT 36 (IS-36),2016-053A,2026-07-07T19:12:15.203808,1.00285795,.0000975,0.0091,10.2892,27.8198,244.1989,0,U,41747,999,3616,0,-.12E-6,0
INTELSAT 32E (IS-32E),2017-007B,2026-07-08T03:54:38.639808,1.00269199,.0000713,0.0175,348.6104,349.2928,323.7010,0,U,41945,999,3443,0,-.254E-5,0
INTELSAT 35E (IS-35E),2017-041A,2026-07-08T03:46:38.459712,1.00269689,.00016,0.0221,25.1444,82.6985,200.4455,0,U,42818,999,3302,0,0,0
INTELSAT 37E (IS-37E),2017-059A,2026-07-08T04:27:38.728224,1.00269886,.0002484,0.0251,38.8294,76.5878,219.6420,0,U,42950,999,3227,0,0,0
AZERSPACE 2 (IS-38),2018-074A,2026-07-08T03:38:53.458368,1.00271124,.0001205,0.0236,30.1301,90.4477,265.3640,0,U,43632,999,2865,0,0,0
HORIZONS-3E,2018-074B,2026-07-07T21:23:33.910080,1.00267153,.0000895,0.0461,215.8693,83.2563,116.6260,0,U,43633,999,2854,0,-.16E-6,0
AT&T T-16,2019-034A,2026-07-07T21:49:16.443840,1.00268746,.000049,0.0156,67.5942,240.6770,204.0501,0,U,44333,999,2584,0,-.1E-5,0
INTELSAT 39 (IS-39),2019-049B,2026-07-08T03:43:45.491232,1.00269623,.000085,0.0225,26.0776,295.0726,82.8492,0,U,44476,999,2533,0,0,0
GALAXY 30 (G-30),2020-056C,2026-07-08T01:07:47.615232,1.00270654,.00021,0.0173,47.4015,60.4134,70.1440,0,U,46114,999,2150,0,.52E-6,0
GALAXY 33 (G-33),2022-128A,2026-07-08T03:17:26.824992,1.00273249,.0001745,0.0113,326.4124,141.2319,94.8236,0,U,54026,999,1395,0,.94E-6,0
GALAXY 34 (G-34),2022-128B,2026-07-08T02:51:28.433376,1.00268793,.0001497,0.0190,23.8702,100.2788,75.8054,0,U,54027,999,1412,0,0,0
GALAXY 31 (G-31),2022-153A,2026-07-08T01:08:55.007232,1.00271653,.0001146,0.0129,15.7307,96.9563,69.5508,0,U,54243,999,734,0,0,0
GALAXY 32 (G-32),2022-153B,2026-07-08T01:17:27.569184,1.00270511,.0001541,0.0092,34.7114,14.1883,165.4788,0,U,54244,999,1335,0,-.159E-5,0
GALAXY 35 (G-35),2022-170A,2026-07-08T04:18:29.479104,1.00270191,.0002055,0.0225,269.2852,202.4627,145.9102,0,U,54741,999,1310,0,-.147E-5,0
GALAXY 36 (G-36),2022-170B,2026-07-08T03:00:40.963104,1.00270712,.0002605,0.0254,132.3820,326.1502,143.7197,0,U,54742,999,1298,0,-.17E-5,0
GALAXY 37 (G-37),2023-112A,2026-07-08T01:07:10.173792,1.00272444,.000184,0.0195,37.4214,76.8938,61.4872,0,U,57493,999,1075,0,.63E-6,0
