INTELSAT 23 (IS-23)     
1 38867U 12057A   26189.14979288 -.00000270  00000+0  00000+0 0  9999
2 38867   0.0121  27.1998 0000342 180.3322  79.5066  1.00270471 50169
FM-6                    
1 39360U 13058A   26189.12001409  .00000000  00000+0  00000+0 0  9999
2 39360   0.0444  68.3523 0002952 116.1872  28.4121  1.00270922 46287
INTELSAT 30 (IS-30)     
1 40271U 14062A   26189.03346980 -.00000136  00000+0  00000+0 0  9995
2 40271   0.0173  47.8504 0001310 342.3909 172.7537  1.00270031  7003
DIRECTV 14              
1 40333U 14078B   26188.90956477 -.00000110  00000+0  00000+0 0  9996
2 40333   0.0108  36.7296 0000289 299.4548 177.8898  1.00272351 42259
DIRECTV 15              
1 40663U 15026A   26188.90887145 -.00000087  00000+0  00000+0 0  9994
2 40663   0.0158  68.2504 0000398 269.1364 172.8114  1.00272144 40673
SKY MEXICO-1            
1 40664U 15026B   26189.17449328 -.00000219  00000+0  00000+0 0  9999
2 40664   0.0128 313.6109 0002453 175.1743 141.3678  1.00270407 40665
INTELSAT 34 (IS-34)     
1 40874U 15039A   26189.15526132 -.00000270  00000+0  00000+0 0  9990
2 40874   0.0102 339.4642 0000296  26.1461 280.9077  1.00270368 39840
INTELSAT 31 (IS-31)     
1 41581U 16035A   26189.18223644 -.00000136  00000+0  00000+0 0  9999
2 41581   0.0347 238.5086 0001013  48.3346 329.8548  1.00270297 36893
INTELSAT 36 (IS-36)     
1 41747U 16053A   26188.80017597 -.00000012  00000+0  00000+0 0  9992
2 41747   0.0091  10.2892 0000975  27.8198 244.1989  1.00285795 36163
INTELSAT 32E (IS-32E)   
1 41945U 17007B   26189.16294722 -.00000254  00000+0  00000+0 0  9997
2 41945   0.0175 348.6104 0000713 349.2928 323.7010  1.00269199 34439
INTELSAT 35E (IS-35E)   
1 42818U 17041A   26189.15738958  .00000000  00000+0  00000+0 0  9996
2 42818   0.0221  25.1444 0001600  82.6985 200.4455  1.00269689 33024
INTELSAT 37E (IS-37E)   
1 42950U 17059A   26189.18586491  .00000000  00000+0  00000+0 0  9998
2 42950   0.0251  38.8294 0002484  76.5878 219.6420  1.00269886 32271
AZERSPACE 2 (IS-38)     
1 43632U 18074A   26189.15200762  .00000000  00000+0  00000+0 0  9995
2 43632   0.0236  30.1301 0001205  90.4477 265.3640  1.00271124 28653
HORIZONS-3E             
1 43633U 18074B   26188.89136470 -.00000016  00000+0  00000+0 0  9998
2 43633   0.0461 215.8693 0000895  83.2563 116.6260  1.00267153 28541
AT&T T-16               
1 44333U 19034A   26188.90921810 -.00000100  00000+0  00000+0 0  9999
2 44333   0.0156  67.5942 0000490 240.6770 204.0501  1.00268746 25848
INTELSAT 39 (IS-39)     
1 44476U 19049B   26189.15538763  .00000000  00000+0  00000+0 0  9990
2 44476   0.0225  26.0776 0000850 295.0726  82.8492  1.00269623 25333
GALAXY 30 (G-30)        
1 46114U 20056C   26189.04707888  .00000052  00000+0  00000+0 0  9992
2 46114   0.0173  47.4015 0002100  60.4134  70.1440  1.00270654 21500
GALAXY 33 (G-33)        
1 54026U 22128A   26189.13711603  .00000094  00000+0  00000+0 0  9991
2 54026   0.0113 326.4124 0001745 141.2319  94.8236  1.00273249 13952
GALAXY 34 (G-34)        
1 54027U 22128B   26189.11907909  .00000000  00000+0  00000+0 0  9993
2 54027   0.0190  23.8702 0001497 100.2788  75.8054  1.00268793 14122
GALAXY 31 (G-31)        
1 54243U 22153A   26189.04785888  .00000000  00000+0  00000+0 0  9993
2 54243   0.0129  15.7307 0001146  96.9563  69.5508  1.00271653  7347
GALAXY 32 (G-32)        
1 54244U 22153B   26189.05379131 -.00000159  00000+0  00000+0 0  9991
2 54244   0.0092  34.7114 0001541  14.1883 165.4788  1.00270511 13356
GALAXY 35 (G-35)        
1 54741U 22170A   26189.17950786 -.00000147  00000+0  00000+0 0  9993
2 54741   0.0225 269.2852 0002055 202.4627 145.9102  1.00270191 13109
GALAXY 36 (G-36)        
1 54742U 22170B   26189.12547411 -.00000170  00000+0  00000+0 0  9992
2 54742   0.0254 132.3820 0002605 326.1502 143.7197  1.00270712 12988
GALAXY 37 (G-37)        
1 57493U 23112A   26189.04664553  .00000063  00000+0  00000+0 0  9993
2 57493   0.0195  37.4214 0001840  76.8938  61.4872  1.00272444 10755
